{"type":"FeatureCollection","features":[{"type":"Feature","properties":{"Address":"531 West 25th Street","Property Name":"Chelsea Condo","City":"New York","State":"NY","Zipcode":10001,"Source":"2007-2009","Property Number":1},"geometry":{"type":"Point","coordinates":[-74.0045186,40.7497535]}},{"type":"Feature","properties":{"Address":"1350 Holiday Lane","Property Name":"Courtyard by Marriott","City":"Fairfield","State":"CA","Zipcode":94534,"Source":"2007-2009","Property Number":2},"geometry":{"type":"Point","coordinates":[-122.0653413,38.2559497]}},{"type":"Feature","properties":{"Address":"201 Marin Boulevard","Property Name":"Gull's Cove Condominiums","City":"Jersey City","State":"NJ","Zipcode":7302,"Source":"2007-2009","Property Number":3},"geometry":{"type":"Point","coordinates":[-74.042669,40.7163208]}},{"type":"Feature","properties":{"Address":"100 Chopin Plaza","Property Name":"Intercontinental Hotel Miami","City":"Miami","State":"FL","Zipcode":33131,"Source":"2007-2009","Property Number":4},"geometry":{"type":"Point","coordinates":[-80.1853264,25.7723945]}},{"type":"Feature","properties":{"Address":"197 Westbank Expressway Suite 33","Property Name":"Oakwood Shopping Center","City":"Gretna","State":"LA","Zipcode":70053,"Source":"2007-2009","Property Number":5},"geometry":{"type":"Point","coordinates":[-90.0536731,29.9107616]}},{"type":"Feature","properties":{"Address":"463 Wooster Avenue","Property Name":"Parkside Terrace Apartments","City":"San Jose","State":"CA","Zipcode":95116,"Source":"2007-2009","Property Number":6},"geometry":{"type":"Point","coordinates":[-121.871224,37.35501]}},{"type":"Feature","properties":{"Address":"International Drive & West Oakridge Road","Property Name":"Prime Outlet Center","City":"Orlando","State":"FL","Zipcode":32819,"Source":"2007-2009","Property Number":7},"geometry":{"type":"Point","coordinates":[-81.446406,28.472061]}},{"type":"Feature","properties":{"Address":"12777 Allegany Road","Property Name":"Seneca","City":"Jimerson Town","State":"NY","Zipcode":14081,"Source":"2007-2009","Property Number":8},"geometry":{"type":"Point","coordinates":[-79.132568,42.561675]}},{"type":"Feature","properties":{"Address":"6850 Mableton Parkway Southeast","Property Name":"Sweetwater Cove Apts","City":"Mableton","State":"GA","Zipcode":30126,"Source":"2007-2009","Property Number":9},"geometry":{"type":"Point","coordinates":[-84.545727,33.78668]}},{"type":"Feature","properties":{"Address":"835 Hamilton Street","Property Name":"The Plaza at PPL Center","City":"Allentown","State":"PA","Zipcode":18101,"Source":"2007-2009","Property Number":10},"geometry":{"type":"Point","coordinates":[-75.4629264,40.6046687]}},{"type":"Feature","properties":{"Address":"701 B Street #110","Property Name":"Thomas Jefferson School of Law","City":"San Diego","State":"CA","Zipcode":92101,"Source":"2007-2009","Property Number":11},"geometry":{"type":"Point","coordinates":[-117.158206,32.717731]}},{"type":"Feature","properties":{"Address":"100 11th Avenue","Property Name":"","City":"New York","State":"NY","Zipcode":10011,"Source":2010,"Property Number":12},"geometry":{"type":"Point","coordinates":[-74.0077838,40.7461829]}},{"type":"Feature","properties":{"Address":"1685-1775 38th Street","Property Name":"","City":"Boulder","State":"CO","Zipcode":80301,"Source":2010,"Property Number":13},"geometry":{"type":"Point","coordinates":[-105.243787,40.016818]}},{"type":"Feature","properties":{"Address":"6904 Hollywood Boulevard","Property Name":"","City":"Los Angeles","State":"CA","Zipcode":90028,"Source":2010,"Property Number":14},"geometry":{"type":"Point","coordinates":[-118.3403394,34.1014589]}},{"type":"Feature","properties":{"Address":"5949 Bethelview Road","Property Name":"Goodyear Portfolio","City":"Cumming","State":"GA","Zipcode":30040,"Source":2010,"Property Number":15},"geometry":{"type":"Point","coordinates":[-84.183306,34.171362]}},{"type":"Feature","properties":{"Address":"3055 Old Atlanta Road","Property Name":"Goodyear Portfolio","City":"Cumming","State":"GA","Zipcode":30041,"Source":2010,"Property Number":16},"geometry":{"type":"Point","coordinates":[-84.153726,34.112505]}},{"type":"Feature","properties":{"Address":"6204 Ganers Ferry Road","Property Name":"Goodyear Portfolio","City":"Columbia","State":"SC","Zipcode":29209,"Source":2010,"Property Number":17},"geometry":{"type":"Point","coordinates":[-80.995962,34.059389]}},{"type":"Feature","properties":{"Address":"1210 Beaver Commons Drive","Property Name":"Goodyear Portfolio","City":"Apex","State":"NC","Zipcode":27502,"Source":2010,"Property Number":18},"geometry":{"type":"Point","coordinates":[-78.8778468,35.7471636]}},{"type":"Feature","properties":{"Address":"4002 Village Park Drive","Property Name":"Goodyear Portfolio","City":"Knightdale","State":"NC","Zipcode":27545,"Source":2010,"Property Number":19},"geometry":{"type":"Point","coordinates":[-78.4956936,35.7979973]}},{"type":"Feature","properties":{"Address":"1000-5000 Ericsson Drive","Property Name":"Keystone Summit Corporate Park","City":"Warrendale","State":"PA","Zipcode":15086,"Source":2010,"Property Number":20},"geometry":{"type":"Point","coordinates":[-80.412275,40.701657]}},{"type":"Feature","properties":{"Address":"13550 Healthcote Boulevard","Property Name":"Marque at Heritage Hunt","City":"Gainesville","State":"VA","Zipcode":20155,"Source":2010,"Property Number":21},"geometry":{"type":"Point","coordinates":[-77.621613,38.815714]}},{"type":"Feature","properties":{"Address":"55 John Street","Property Name":"","City":"New York","State":"NY","Zipcode":10038,"Source":2011,"Property Number":22},"geometry":{"type":"Point","coordinates":[-74.0076153,40.709049]}},{"type":"Feature","properties":{"Address":"62-74 Avenue B","Property Name":"","City":"New York","State":"NY","Zipcode":10009,"Source":2011,"Property Number":23},"geometry":{"type":"Point","coordinates":[-73.9807274,40.7257401]}},{"type":"Feature","properties":{"Address":"554-556 Third Avenue","Property Name":"Aurora","City":"New York","State":"NY","Zipcode":10016,"Source":2011,"Property Number":24},"geometry":{"type":"Point","coordinates":[-73.9208338,40.8143702]}},{"type":"Feature","properties":{"Address":"844 Second Avenue","Property Name":"","City":"New York","State":"NY","Zipcode":10017,"Source":2011,"Property Number":25},"geometry":{"type":"Point","coordinates":[-72.9735568,40.945984]}},{"type":"Feature","properties":{"Address":"2271 Morris Avenue","Property Name":"Bronx Maidman Multi-Family Portfolio","City":"Bronx","State":"NY","Zipcode":10453,"Source":2011,"Property Number":26},"geometry":{"type":"Point","coordinates":[-73.9022694,40.8579031]}},{"type":"Feature","properties":{"Address":"2265 Morris Avenue","Property Name":"Bronx Maidman Multi-Family Portfolio","City":"Bronx","State":"NY","Zipcode":10453,"Source":2011,"Property Number":27},"geometry":{"type":"Point","coordinates":[-73.9023358,40.8577739]}},{"type":"Feature","properties":{"Address":"2350 Creston Avenue","Property Name":"Bronx Maidman Multi-Family Portfolio","City":"Bronx","State":"NY","Zipcode":10468,"Source":2011,"Property Number":28},"geometry":{"type":"Point","coordinates":[-73.9000068,40.8590901]}},{"type":"Feature","properties":{"Address":"735 Bryant Avenue","Property Name":"Bronx Maidman Multi-Family Portfolio","City":"Bronx","State":"NY","Zipcode":10474,"Source":2011,"Property Number":29},"geometry":{"type":"Point","coordinates":[-73.8861025,40.8157568]}},{"type":"Feature","properties":{"Address":"2345 Crotona Avenue","Property Name":"Bronx Maidman Multi-Family Portfolio","City":"Bronx","State":"NY","Zipcode":10458,"Source":2011,"Property Number":30},"geometry":{"type":"Point","coordinates":[-73.8842563,40.8533209]}},{"type":"Feature","properties":{"Address":"3212 Cruger Avenue","Property Name":"Bronx Maidman Multi-Family Portfolio","City":"Bronx","State":"NY","Zipcode":10467,"Source":2011,"Property Number":31},"geometry":{"type":"Point","coordinates":[-73.865869,40.8718962]}},{"type":"Feature","properties":{"Address":"1221 Sheridan Avenue","Property Name":"Bronx Maidman Multi-Family Portfolio","City":"Bronx","State":"NY","Zipcode":10456,"Source":2011,"Property Number":32},"geometry":{"type":"Point","coordinates":[-73.9163517,40.8346454]}},{"type":"Feature","properties":{"Address":"1225 Sheridan Avenue","Property Name":"Bronx Maidman Multi-Family Portfolio","City":"Bronx","State":"NY","Zipcode":10456,"Source":2011,"Property Number":33},"geometry":{"type":"Point","coordinates":[-73.9161285,40.8348734]}},{"type":"Feature","properties":{"Address":"500 East Armour Boulevard","Property Name":"Commonwealth Armour Boulevard Portfolio","City":"Kansas City","State":"MO","Zipcode":64109,"Source":2011,"Property Number":34},"geometry":{"type":"Point","coordinates":[-94.579594,39.0639714]}},{"type":"Feature","properties":{"Address":"301 West Armour Boulevard","Property Name":"Commonwealth Armour Boulevard Portfolio","City":"Kansas City","State":"MO","Zipcode":64109,"Source":2011,"Property Number":35},"geometry":{"type":"Point","coordinates":[-94.5894562,39.0636184]}},{"type":"Feature","properties":{"Address":"3420 Locust Street","Property Name":"Commonwealth Armour Boulevard Portfolio","City":"Kansas City","State":"MO","Zipcode":64109,"Source":2011,"Property Number":36},"geometry":{"type":"Point","coordinates":[-94.5798905,39.0648919]}},{"type":"Feature","properties":{"Address":"3421 Locust Street","Property Name":"Commonwealth Armour Boulevard Portfolio","City":"Kansas City","State":"MO","Zipcode":64109,"Source":2011,"Property Number":37},"geometry":{"type":"Point","coordinates":[-94.5794567,39.0644284]}},{"type":"Feature","properties":{"Address":"3425 Locust Street","Property Name":"Commonwealth Armour Boulevard Portfolio","City":"Kansas City","State":"MO","Zipcode":64109,"Source":2011,"Property Number":38},"geometry":{"type":"Point","coordinates":[-94.5794676,39.0642871]}},{"type":"Feature","properties":{"Address":"308-310 East 34th Street","Property Name":"Commonwealth Armour Boulevard Portfolio","City":"Kansas City","State":"MO","Zipcode":64111,"Source":2011,"Property Number":39},"geometry":{"type":"Point","coordinates":[-94.5849974,39.0657366]}},{"type":"Feature","properties":{"Address":"214 East Armour Boulevard","Property Name":"Commonwealth Armour Boulevard Portfolio","City":"Kansas City","State":"MO","Zipcode":64111,"Source":2011,"Property Number":40},"geometry":{"type":"Point","coordinates":[-94.583046,39.0637746]}},{"type":"Feature","properties":{"Address":"809-811 East Armour Boulevard","Property Name":"Commonwealth Armour Boulevard Portfolio","City":"Kansas City","State":"MO","Zipcode":64109,"Source":2011,"Property Number":41},"geometry":{"type":"Point","coordinates":[-94.577516,39.063472]}},{"type":"Feature","properties":{"Address":"615-621 East Armour Boulevard","Property Name":"Commonwealth Armour Boulevard Portfolio","City":"Kansas City","State":"MO","Zipcode":64109,"Source":2011,"Property Number":42},"geometry":{"type":"Point","coordinates":[-94.577516,39.063472]}},{"type":"Feature","properties":{"Address":"3511 Cherry Street","Property Name":"Commonwealth Armour Boulevard Portfolio","City":"Kansas City","State":"MO","Zipcode":64109,"Source":2011,"Property Number":43},"geometry":{"type":"Point","coordinates":[-94.5786007,39.0632334]}},{"type":"Feature","properties":{"Address":"1400 West San Carlos Street","Property Name":"Meridian Apartments","City":"San Jose","State":"CA","Zipcode":95126,"Source":2011,"Property Number":44},"geometry":{"type":"Point","coordinates":[-121.913902,37.323408]}},{"type":"Feature","properties":{"Address":"14289 Potomac Mills Road","Property Name":"Potomac Festival I","City":"Woodbridge","State":"VA","Zipcode":22191,"Source":2011,"Property Number":45},"geometry":{"type":"Point","coordinates":[-77.295642,38.636556]}},{"type":"Feature","properties":{"Address":"11 South LaSalle Street","Property Name":"","City":"Chicago","State":"IL","Zipcode":60603,"Source":2012,"Property Number":46},"geometry":{"type":"Point","coordinates":[-87.6320849,41.881728]}},{"type":"Feature","properties":{"Address":"148 Duane Street","Property Name":"","City":"New York","State":"NY","Zipcode":10013,"Source":2012,"Property Number":47},"geometry":{"type":"Point","coordinates":[-74.0082223,40.7162253]}},{"type":"Feature","properties":{"Address":"170 East 80th Street","Property Name":"","City":"New York","State":"NY","Zipcode":10075,"Source":2012,"Property Number":48},"geometry":{"type":"Point","coordinates":[-73.9576606,40.775136]}},{"type":"Feature","properties":{"Address":"735 Collins Avenue","Property Name":"","City":"Miami","State":"FL","Zipcode":33139,"Source":2012,"Property Number":49},"geometry":{"type":"Point","coordinates":[-80.1320401,25.7775469]}},{"type":"Feature","properties":{"Address":"5545 Sky Parkway","Property Name":"Azure Park Apartments","City":"Sacramento","State":"CA","Zipcode":95823,"Source":2012,"Property Number":50},"geometry":{"type":"Point","coordinates":[-121.436549,38.502327]}},{"type":"Feature","properties":{"Address":"1168 Bellevue Avenue","Property Name":"Brownstone Lofts","City":"Los Angeles","State":"CA","Zipcode":90012,"Source":2012,"Property Number":51},"geometry":{"type":"Point","coordinates":[-118.2514129,34.0661722]}},{"type":"Feature","properties":{"Address":"8380 Cerrillos Road","Property Name":"Fashion Outlets of Santa Fe","City":"Santa Fe","State":"NM","Zipcode":87507,"Source":2012,"Property Number":52},"geometry":{"type":"Point","coordinates":[-106.0320379,35.6101967]}},{"type":"Feature","properties":{"Address":"2700-2758 Kemper Road","Property Name":"Hardy Portfolio","City":"Cincinnati","State":"OH","Zipcode":45241,"Source":2012,"Property Number":53},"geometry":{"type":"Point","coordinates":[-84.416723,39.283541]}},{"type":"Feature","properties":{"Address":"2800-2888 Kemper Road","Property Name":"Hardy Portfolio","City":"Cincinnati","State":"OH","Zipcode":45241,"Source":2012,"Property Number":54},"geometry":{"type":"Point","coordinates":[-84.413508,39.283372]}},{"type":"Feature","properties":{"Address":"6900-6918 Fairfield Road","Property Name":"Hardy Portfolio","City":"Cincinnati","State":"OH","Zipcode":45014,"Source":2012,"Property Number":55},"geometry":{"type":"Point","coordinates":[-84.65575,39.312536]}},{"type":"Feature","properties":{"Address":"4514-4548 Cornell Road","Property Name":"Hardy Portfolio","City":"Cincinnati","State":"OH","Zipcode":45241,"Source":2012,"Property Number":56},"geometry":{"type":"Point","coordinates":[-84.380299,39.270839]}},{"type":"Feature","properties":{"Address":"4500 Interstate 55 North","Property Name":"Highland Village Shopping Center","City":"Jackson","State":"MS","Zipcode":39211,"Source":2012,"Property Number":57},"geometry":{"type":"Point","coordinates":[-90.142861,32.248601]}},{"type":"Feature","properties":{"Address":"950 Meridian Avenue","Property Name":"Meridian Apartments","City":"San Jose","State":"CA","Zipcode":95126,"Source":2012,"Property Number":58},"geometry":{"type":"Point","coordinates":[-121.9124566,37.3091157]}},{"type":"Feature","properties":{"Address":"North 9th Street","Property Name":"","City":"Brooklyn","State":"NY","Zipcode":11211,"Source":2012,"Property Number":59},"geometry":{"type":"Point","coordinates":[-73.953992,40.717357]}},{"type":"Feature","properties":{"Address":"2131 Wallace Avenue","Property Name":"Parkoff Bronx Portfolio","City":"Bronx","State":"NY","Zipcode":10462,"Source":2012,"Property Number":60},"geometry":{"type":"Point","coordinates":[-73.8649294,40.8542154]}},{"type":"Feature","properties":{"Address":"2146 Barnes Avenue","Property Name":"Parkoff Bronx Portfolio","City":"Bronx","State":"NY","Zipcode":10462,"Source":2012,"Property Number":61},"geometry":{"type":"Point","coordinates":[-73.8637322,40.8548825]}},{"type":"Feature","properties":{"Address":"2162 Barnes Avenue","Property Name":"Parkoff Bronx Portfolio","City":"Bronx","State":"NY","Zipcode":10462,"Source":2012,"Property Number":62},"geometry":{"type":"Point","coordinates":[-73.8637146,40.8554091]}},{"type":"Feature","properties":{"Address":"2182 Barnes Avenue","Property Name":"Parkoff Bronx Portfolio","City":"Bronx","State":"NY","Zipcode":10462,"Source":2012,"Property Number":63},"geometry":{"type":"Point","coordinates":[-73.8636979,40.8558814]}},{"type":"Feature","properties":{"Address":"27303 Sara Street","Property Name":"Riverpark Apartments","City":"Canyon Country","State":"CA","Zipcode":91387,"Source":2012,"Property Number":64},"geometry":{"type":"Point","coordinates":[-118.448649,34.411087]}},{"type":"Feature","properties":{"Address":"7030 Gentle Shade Road","Property Name":"Stonehaven Apartments","City":"Columbia","State":"MD","Zipcode":21046,"Source":2012,"Property Number":65},"geometry":{"type":"Point","coordinates":[-76.826738,39.17795]}},{"type":"Feature","properties":{"Address":"611 New Jersey Route 18","Property Name":"Summerhill Square","City":"East Brunswick","State":"NJ","Zipcode":8816,"Source":2012,"Property Number":66},"geometry":{"type":"Point","coordinates":[-74.389452,40.434705]}},{"type":"Feature","properties":{"Address":"1570 Joliet Street #D007","Property Name":"Windsor Court Apartments","City":"Aurora","State":"CO","Zipcode":80010,"Source":2012,"Property Number":67},"geometry":{"type":"Point","coordinates":[-104.8610074,39.741417]}},{"type":"Feature","properties":{"Address":"5407-5419 Kings Highway","Property Name":"Clarendon Gardens","City":"Brooklyn","State":"NY","Zipcode":11203,"Source":2013,"Property Number":68},"geometry":{"type":"Point","coordinates":[-73.925516,40.641168]}},{"type":"Feature","properties":{"Address":"5307 South Hyde Park Boulevard","Property Name":"Del Prado","City":"Chicago","State":"IL","Zipcode":60615,"Source":2013,"Property Number":69},"geometry":{"type":"Point","coordinates":[-87.5836096,41.7992716]}},{"type":"Feature","properties":{"Address":"2118 East 7th Place","Property Name":"East 7th Place Portfolio","City":"Los Angeles","State":"CA","Zipcode":90021,"Source":2013,"Property Number":70},"geometry":{"type":"Point","coordinates":[-118.2296267,34.033472]}},{"type":"Feature","properties":{"Address":"2120 East 7th Place","Property Name":"East 7th Place Portfolio","City":"Los Angeles","State":"CA","Zipcode":90021,"Source":2013,"Property Number":71},"geometry":{"type":"Point","coordinates":[-118.2296001,34.0334718]}},{"type":"Feature","properties":{"Address":"2124 East 7th Place","Property Name":"East 7th Place Portfolio","City":"Los Angeles","State":"CA","Zipcode":90021,"Source":2013,"Property Number":72},"geometry":{"type":"Point","coordinates":[-118.2295469,34.0334713]}},{"type":"Feature","properties":{"Address":"2140 East 7th Place","Property Name":"East 7th Place Portfolio","City":"Los Angeles","State":"CA","Zipcode":90021,"Source":2013,"Property Number":73},"geometry":{"type":"Point","coordinates":[-118.2293342,34.0334695]}},{"type":"Feature","properties":{"Address":"2117 Violet Street","Property Name":"East 7th Place Portfolio","City":"Los Angeles","State":"CA","Zipcode":90021,"Source":2013,"Property Number":74},"geometry":{"type":"Point","coordinates":[-118.229603,34.0326469]}},{"type":"Feature","properties":{"Address":"1030 Hunters Run Drive","Property Name":"Hunters Run","City":"Lebanon","State":"OH","Zipcode":45036,"Source":2013,"Property Number":75},"geometry":{"type":"Point","coordinates":[-84.188927,39.4499464]}},{"type":"Feature","properties":{"Address":"510 Flatbush Avenue","Property Name":"Lincoln Park","City":"Brooklyn","State":"NY","Zipcode":11225,"Source":2013,"Property Number":76},"geometry":{"type":"Point","coordinates":[-73.9618216,40.6615428]}},{"type":"Feature","properties":{"Address":"515 South 6th Street","Property Name":"ManagCare Portfolio - Colonial Hall Care Center","City":"Princeton","State":"IL","Zipcode":61356,"Source":2013,"Property Number":77},"geometry":{"type":"Point","coordinates":[-89.45042,41.365297]}},{"type":"Feature","properties":{"Address":"578 Commercial Street","Property Name":"ManagCare Portfolio - Rivershores","City":"Marseilles","State":"IL","Zipcode":61341,"Source":2013,"Property Number":78},"geometry":{"type":"Point","coordinates":[-88.7173673,41.3285442]}},{"type":"Feature","properties":{"Address":"1629 Gardner Lane","Property Name":"ManagCare Portfolio - Bella Vista","City":"Peoria Heights","State":"IL","Zipcode":61616,"Source":2013,"Property Number":79},"geometry":{"type":"Point","coordinates":[-89.5689657,40.7581029]}},{"type":"Feature","properties":{"Address":"190 East Queenwood Road","Property Name":"ManagCare Portfolio - Morton Villa","City":"Morton","State":"IL","Zipcode":61550,"Source":2013,"Property Number":80},"geometry":{"type":"Point","coordinates":[-89.4700754,40.5900613]}},{"type":"Feature","properties":{"Address":"191 East Queenwood Road","Property Name":"ManagCare Portfolio - Morton Terrace","City":"Morton","State":"IL","Zipcode":61550,"Source":2013,"Property Number":81},"geometry":{"type":"Point","coordinates":[-89.4705849,40.5913217]}},{"type":"Feature","properties":{"Address":"555 West Carpenter Street","Property Name":"ManagCare Portfolio - Capital Care Center","City":"Springfield","State":"IL","Zipcode":62702,"Source":2013,"Property Number":82},"geometry":{"type":"Point","coordinates":[-89.6630293,39.807889]}},{"type":"Feature","properties":{"Address":"3450 West Cahuenga Boulevard","Property Name":"Universal Lofts","City":"Los Angeles","State":"CA","Zipcode":90068,"Source":2013,"Property Number":83},"geometry":{"type":"Point","coordinates":[-118.353796,34.132469]}},{"type":"Feature","properties":{"Address":"8-12 Maiden Lane","Property Name":"","City":"New York","State":"NY","Zipcode":10038,"Source":2014,"Property Number":84},"geometry":{"type":"Point","coordinates":[-74.0088957,40.7090594]}},{"type":"Feature","properties":{"Address":"141 Willoughby Street","Property Name":"","City":"Brooklyn","State":"NY","Zipcode":11201,"Source":2014,"Property Number":85},"geometry":{"type":"Point","coordinates":[-73.9830614,40.6921717]}},{"type":"Feature","properties":{"Address":"326-330 West 37th Street","Property Name":"","City":"New York","State":"NY","Zipcode":10018,"Source":2014,"Property Number":86},"geometry":{"type":"Point","coordinates":[-73.986267,40.7516424]}},{"type":"Feature","properties":{"Address":"334 West 36th Street","Property Name":"","City":"New York","State":"NY","Zipcode":10018,"Source":2014,"Property Number":87},"geometry":{"type":"Point","coordinates":[-73.9936053,40.7538422]}},{"type":"Feature","properties":{"Address":"1155 Market Street","Property Name":"","City":"San Francisco","State":"CA","Zipcode":94103,"Source":2014,"Property Number":88},"geometry":{"type":"Point","coordinates":[-122.4134076,37.7792255]}},{"type":"Feature","properties":{"Address":"1325 West Wilson Avenue","Property Name":"","City":"Chicago","State":"IL","Zipcode":60640,"Source":2014,"Property Number":89},"geometry":{"type":"Point","coordinates":[-87.6633434,41.9651973]}},{"type":"Feature","properties":{"Address":"1500 Post Oak Drive","Property Name":"Alden Ridge Apartments","City":"Clarkston","State":"GA","Zipcode":30021,"Source":2014,"Property Number":90},"geometry":{"type":"Point","coordinates":[-84.2308979,33.8250609]}},{"type":"Feature","properties":{"Address":"1500 Holcomb Bridge Road","Property Name":"Centre at Peachtree Corner & Summit at Dawson","City":"Norcross","State":"GA","Zipcode":30092,"Source":2014,"Property Number":91},"geometry":{"type":"Point","coordinates":[-84.222595,33.9447996]}},{"type":"Feature","properties":{"Address":"434-485 South Wright Street","Property Name":"Mountain Vista","City":"Lakewood","State":"CO","Zipcode":80228,"Source":2014,"Property Number":92},"geometry":{"type":"Point","coordinates":[-105.139414,39.722433]},"id":91},{"type":"Feature","properties":{"Address":"27 Prince Street","Property Name":"","City":"New York","State":"NY","Zipcode":10012,"Source":2015,"Property Number":93},"geometry":{"type":"Point","coordinates":[-73.9945851,40.7229906]}},{"type":"Feature","properties":{"Address":"468 Columbus Avenue","Property Name":"","City":"New York","State":"NY","Zipcode":10024,"Source":2015,"Property Number":94},"geometry":{"type":"Point","coordinates":[-73.9739869,40.7841693]}},{"type":"Feature","properties":{"Address":"220 Calibre Downs Lane","Property Name":"Madison Oaks Apartments","City":"Palm Harbor","State":"FL","Zipcode":34684,"Source":2015,"Property Number":95},"geometry":{"type":"Point","coordinates":[-82.713624,28.06323]}},{"type":"Feature","properties":{"Address":"92-77 Queens Boulevard","Property Name":"","City":"Rego Park","State":"NY","Zipcode":11374,"Source":2015,"Property Number":96},"geometry":{"type":"Point","coordinates":[-73.8663644,40.7322431]}},{"type":"Feature","properties":{"Address":"1954 Northwest Pettygrove Street","Property Name":"Tess O'Brien","City":"Portland","State":"OR","Zipcode":97209,"Source":2015,"Property Number":97},"geometry":{"type":"Point","coordinates":[-122.6916993,45.532683]}},{"type":"Feature","properties":{"Address":"3030 Shrine Place","Property Name":"The Shrine Collection","City":"Los Angeles","State":"CA","Zipcode":90007,"Source":2015,"Property Number":98},"geometry":{"type":"Point","coordinates":[-118.2798977,34.0252346]}},{"type":"Feature","properties":{"Address":"727 15th Street Northwest","Property Name":"","City":"Washington","State":"DC","Zipcode":20005,"Source":2016,"Property Number":99},"geometry":{"type":"Point","coordinates":[-77.0332601,38.8996052]}},{"type":"Feature","properties":{"Address":"740 15th Street Northwest","Property Name":"","City":"Washington","State":"DC","Zipcode":20005,"Source":2016,"Property Number":100},"geometry":{"type":"Point","coordinates":[-77.0340188,38.8999304]}},{"type":"Feature","properties":{"Address":"101-113 West Division Street","Property Name":"Mark Twain Hotel","City":"Chicago","State":"IL","Zipcode":60610,"Source":2016,"Property Number":101},"geometry":{"type":"Point","coordinates":[-87.6385923,41.9037785]}},{"type":"Feature","properties":{"Address":"3024 North Powers Drive","Property Name":"Silver Oaks Apartments","City":"Orlando","State":"FL","Zipcode":32818,"Source":2016,"Property Number":102},"geometry":{"type":"Point","coordinates":[-81.467862,28.582453]}},{"type":"Feature","properties":{"Address":"320-350 West 39th Street","Property Name":"","City":"New York","State":"NY","Zipcode":10018,"Source":2016,"Property Number":103},"geometry":{"type":"Point","coordinates":[-73.992312,40.755875]}},{"type":"Feature","properties":{"Address":"144 West Street","Property Name":"","City":"Brooklyn","State":"NY","Zipcode":11222,"Source":2017,"Property Number":104},"geometry":{"type":"Point","coordinates":[-73.9594913,40.7319645]}},{"type":"Feature","properties":{"Address":"1111 Massachusetts Avenue Northwest","Property Name":"","City":"Washington","State":"DC","Zipcode":20005,"Source":2017,"Property Number":105},"geometry":{"type":"Point","coordinates":[-77.0276154,38.904492]}},{"type":"Feature","properties":{"Address":"900 South Dwight Avenue","Property Name":"Alondra Villas","City":"Compton","State":"CA","Zipcode":90220,"Source":2017,"Property Number":106},"geometry":{"type":"Point","coordinates":[-118.240852,33.888378]}},{"type":"Feature","properties":{"Address":"1502 Marsh Cove Court","Property Name":"Crosswynde Apartments","City":"Tampa","State":"FL","Zipcode":33619,"Source":2017,"Property Number":107},"geometry":{"type":"Point","coordinates":[-82.349024,27.935482]}},{"type":"Feature","properties":{"Address":"3301 South Kirkman Road","Property Name":"Grand Reserve Apartments","City":"Orlando","State":"FL","Zipcode":32811,"Source":2017,"Property Number":108},"geometry":{"type":"Point","coordinates":[-81.4594085,28.5291198]}},{"type":"Feature","properties":{"Address":"701 Fairgrounds Drive","Property Name":"Greenfair Apartments","City":"Sacramento","State":"CA","Zipcode":95817,"Source":2017,"Property Number":109},"geometry":{"type":"Point","coordinates":[-121.4406643,38.5483082]}},{"type":"Feature","properties":{"Address":"3431 South La Brea Avenue","Property Name":"La Brea Gardens","City":"Los Angeles","State":"CA","Zipcode":90016,"Source":2017,"Property Number":110},"geometry":{"type":"Point","coordinates":[-118.3553806,34.0244609]}},{"type":"Feature","properties":{"Address":"1100 South Beverly Drive","Property Name":"Kashani Portfolio","City":"Los Angeles","State":"CA","Zipcode":90035,"Source":2017,"Property Number":111},"geometry":{"type":"Point","coordinates":[-118.396513,34.05703]}},{"type":"Feature","properties":{"Address":"341 South Alvarado Street","Property Name":"Kashani Portfolio","City":"Los Angeles","State":"CA","Zipcode":90057,"Source":2017,"Property Number":112},"geometry":{"type":"Point","coordinates":[-118.2732083,34.0622946]}},{"type":"Feature","properties":{"Address":"668 South Rampart Boulevard","Property Name":"Kashani Portfolio","City":"Los Angeles","State":"CA","Zipcode":90057,"Source":2017,"Property Number":113},"geometry":{"type":"Point","coordinates":[-118.2828551,34.0599149]}},{"type":"Feature","properties":{"Address":"4310 Russell Avenue","Property Name":"Kashani Portfolio","City":"Los Angeles","State":"CA","Zipcode":90027,"Source":2017,"Property Number":114},"geometry":{"type":"Point","coordinates":[-118.2833883,34.1044389]}},{"type":"Feature","properties":{"Address":"2816 San Marino Street","Property Name":"Kashani Portfolio","City":"Los Angeles","State":"CA","Zipcode":90006,"Source":2017,"Property Number":115},"geometry":{"type":"Point","coordinates":[-118.2893816,34.0549112]}},{"type":"Feature","properties":{"Address":"1625 Renaissance Commons Boulevard","Property Name":"Monteverde at Renaissance Commons","City":"Boynton Beach","State":"FL","Zipcode":33426,"Source":2017,"Property Number":116},"geometry":{"type":"Point","coordinates":[-80.0893847,26.5431507]}},{"type":"Feature","properties":{"Address":"6611-6639 Reseda Boulevard","Property Name":"The Watermark","City":"Los Angeles","State":"CA","Zipcode":91335,"Source":2017,"Property Number":117},"geometry":{"type":"Point","coordinates":[-118.536105,34.190901]}},{"type":"Feature","properties":{"Address":"602 Euclid Avenue","Property Name":"Walgreens","City":"San Diego","State":"CA","Zipcode":92114,"Source":2017,"Property Number":118},"geometry":{"type":"Point","coordinates":[-117.0851045,32.7114356]}},{"type":"Feature","properties":{"Address":"257-263 West 34th Street","Property Name":"","City":"New York","State":"NY","Zipcode":10001,"Source":2018,"Property Number":119},"geometry":{"type":"Point","coordinates":[-73.9874153,40.7496595]}},{"type":"Feature","properties":{"Address":"320 East 82nd Street","Property Name":"","City":"New York","State":"NY","Zipcode":10028,"Source":2018,"Property Number":120},"geometry":{"type":"Point","coordinates":[-73.9527171,40.7747004]}},{"type":"Feature","properties":{"Address":"439-443 West 48th Street","Property Name":"","City":"New York","State":"NY","Zipcode":10036,"Source":2018,"Property Number":121},"geometry":{"type":"Point","coordinates":[-73.9794547,40.757852]}},{"type":"Feature","properties":{"Address":"1427 Germantown Avenue","Property Name":"","City":"Philadelphia","State":"PA","Zipcode":19122,"Source":2018,"Property Number":122},"geometry":{"type":"Point","coordinates":[-75.1414331,39.9728656]}},{"type":"Feature","properties":{"Address":"5300 Georgia Highway 138","Property Name":"Shannon Lake Apartments","City":"Union City","State":"GA","Zipcode":30291,"Source":2018,"Property Number":123},"geometry":{"type":"Point","coordinates":[-84.549838,33.570221]}},{"type":"Feature","properties":{"Address":"640 West Willis Street","Property Name":"Westwill Apartments","City":"Detroit","State":"MI","Zipcode":48201,"Source":2018,"Property Number":124},"geometry":{"type":"Point","coordinates":[-83.0668095,42.3498819]}},{"type":"Feature","properties":{"Address":"6617 Simmons Loop","Property Name":"Wildgrass Apartments","City":"Riverview","State":"FL","Zipcode":33578,"Source":2018,"Property Number":125},"geometry":{"type":"Point","coordinates":[-82.382255,27.864453]}},{"type":"Feature","properties":{"Address":"1025 Old Country Road","Property Name":"","City":"Westbury","State":"NY","Zipcode":11590,"Source":2019,"Property Number":126},"geometry":{"type":"Point","coordinates":[-73.5578939,40.755433]}},{"type":"Feature","properties":{"Address":"4301 Executive Circle","Property Name":"Cobblestone at the Lakes Apartments","City":"Fort Myers","State":"FL","Zipcode":33916,"Source":2019,"Property Number":127},"geometry":{"type":"Point","coordinates":[-81.8451545,26.6003899]}},{"type":"Feature","properties":{"Address":"14949 Roscoe Boulevard","Property Name":"Panorama Portfolio","City":"Panorama City","State":"CA","Zipcode":91402,"Source":2019,"Property Number":128},"geometry":{"type":"Point","coordinates":[-118.4590198,34.2215487]}},{"type":"Feature","properties":{"Address":"4300 Flat Shoals Road","Property Name":"Park at Morella","City":"Union City","State":"GA","Zipcode":30291,"Source":2019,"Property Number":129},"geometry":{"type":"Point","coordinates":[-84.529728,33.586523]}},{"type":"Feature","properties":{"Address":"100 Belmont Place","Property Name":"","City":"Staten Island","State":"NY","Zipcode":10301,"Source":2020,"Property Number":130},"geometry":{"type":"Point","coordinates":[-74.0800596,40.6426827]}},{"type":"Feature","properties":{"Address":"4530 Leeward Ridge Drive","Property Name":"The Asbury Apartments","City":"Tampa","State":"FL","Zipcode":33619,"Source":2020,"Property Number":131},"geometry":{"type":"Point","coordinates":[-82.55274,28.028468]}},{"type":"Feature","properties":{"Address":"2835 West Northern Avenue","Property Name":"AZ Multifamily","City":"Phoenix","State":"AZ","Zipcode":85051,"Source":2020,"Property Number":132},"geometry":{"type":"Point","coordinates":[-112.1202686,33.5524886]}},{"type":"Feature","properties":{"Address":"2820-2844 West Augusta Avenue","Property Name":"AZ Multifamily","City":"Phoenix","State":"AZ","Zipcode":85051,"Source":2020,"Property Number":133},"geometry":{"type":"Point","coordinates":[-112.119566,33.55131]}},{"type":"Feature","properties":{"Address":"245 Bonita Glen Drive","Property Name":"Bonita Glen","City":"Chula Vista","State":"CA","Zipcode":91910,"Source":2020,"Property Number":134},"geometry":{"type":"Point","coordinates":[-117.0637181,32.6469871]}},{"type":"Feature","properties":{"Address":"6812 11th Avenue","Property Name":"Golden Bee Portfolio","City":"Los Angeles","State":"CA","Zipcode":90043,"Source":2020,"Property Number":135},"geometry":{"type":"Point","coordinates":[-118.3294089,33.9959403]}},{"type":"Feature","properties":{"Address":"7916 South Crenshaw Boulevard","Property Name":"Golden Bee Portfolio","City":"Inglewood","State":"CA","Zipcode":90302,"Source":2020,"Property Number":136},"geometry":{"type":"Point","coordinates":[-118.326295,33.9288014]}},{"type":"Feature","properties":{"Address":"1845 Pine Avenue","Property Name":"Golden Bee Portfolio","City":"Long Beach","State":"CA","Zipcode":90806,"Source":2020,"Property Number":137},"geometry":{"type":"Point","coordinates":[-118.1924777,33.7907361]}},{"type":"Feature","properties":{"Address":"3310 Warrensville Center Road","Property Name":"Shaker Heights","City":"Shaker Heights","State":"OH","Zipcode":44122,"Source":2020,"Property Number":138},"geometry":{"type":"Point","coordinates":[-81.536405,41.4687272]}},{"type":"Feature","properties":{"Address":"20825 Chagrin Boulevard","Property Name":"Shaker Heights","City":"Shaker Heights","State":"OH","Zipcode":44122,"Source":2020,"Property Number":139},"geometry":{"type":"Point","coordinates":[-81.5329529,41.4646292]}},{"type":"Feature","properties":{"Address":"16715 Van Aken Boulevard","Property Name":"Shaker Heights","City":"Shaker Heights","State":"OH","Zipcode":44120,"Source":2020,"Property Number":140},"geometry":{"type":"Point","coordinates":[-81.5640009,41.4668213]}},{"type":"Feature","properties":{"Address":"6736 Woodley Avenue","Property Name":"Golden Bee - Woodley","City":"Van Nuys","State":"CA","Zipcode":91406,"Source":2021,"Property Number":141},"geometry":{"type":"Point","coordinates":[-118.483576,34.192768]}},{"type":"Feature","properties":{"Address":"700 West Avenue I","Property Name":"Parkwood","City":"Lancaster","State":"CA","Zipcode":93534,"Source":2021,"Property Number":142},"geometry":{"type":"Point","coordinates":[-118.143318,34.703864]}},{"type":"Feature","properties":{"Address":"536 Bahia Beach Boulevard","Property Name":"Harborside Suites","City":"Ruskin","State":"FL","Zipcode":33570,"Source":2021,"Property Number":143},"geometry":{"type":"Point","coordinates":[-82.4738314,27.7277588]}},{"type":"Feature","properties":{"Address":"6700 South Merrill Street","Property Name":"","City":"Chicago","State":"IL","Zipcode":60649,"Source":2021,"Property Number":144},"geometry":{"type":"Point","coordinates":[-87.572826,41.773486]}},{"type":"Feature","properties":{"Address":"856 Gramercy Drive","Property Name":"","City":"Los Angeles","State":"CA","Zipcode":90005,"Source":2022,"Property Number":145},"geometry":{"type":"Point","coordinates":[-118.3120874,34.0568051]}},{"type":"Feature","properties":{"Address":"3602 Country Club Road North","Property Name":"The Braxton Apartments","City":"Irving","State":"TX","Zipcode":75062,"Source":2022,"Property Number":146},"geometry":{"type":"Point","coordinates":[-96.9775,32.852924]}},{"type":"Feature","properties":{"Address":"2301 East Market Street","Property Name":"Fountain View Apartments","City":"Long Beach","State":"CA","Zipcode":90805,"Source":2022,"Property Number":147},"geometry":{"type":"Point","coordinates":[-118.1663914,33.8545204]}},{"type":"Feature","properties":{"Address":"5565-5700 Ackerfield Avenue","Property Name":"Golden Bee - Ackerfield","City":"Long Beach","State":"CA","Zipcode":90805,"Source":2022,"Property Number":148},"geometry":{"type":"Point","coordinates":[-118.163032,33.858962]}},{"type":"Feature","properties":{"Address":"400 Legends Terrace Drive","Property Name":"Legends Portfolio","City":"Eureka","State":"MO","Zipcode":63025,"Source":2022,"Property Number":149},"geometry":{"type":"Point","coordinates":[-90.6280508,38.4932816]}},{"type":"Feature","properties":{"Address":"775 Niehoff Drive","Property Name":"Legends Portfolio","City":"Eureka","State":"MO","Zipcode":63025,"Source":2022,"Property Number":150},"geometry":{"type":"Point","coordinates":[-90.6301762,38.4897008]}},{"type":"Feature","properties":{"Address":"701 Wilson Street","Property Name":"Pullman Lofts","City":"Santa Rosa","State":"CA","Zipcode":95401,"Source":2022,"Property Number":151},"geometry":{"type":"Point","coordinates":[-122.7230217,38.4403106]}},{"type":"Feature","properties":{"Address":"4252 Belden Greens Circle Northwest","Property Name":"The Residences at the Greens","City":"Canton","State":"OH","Zipcode":44718,"Source":2022,"Property Number":152},"geometry":{"type":"Point","coordinates":[-81.349634,40.809202]}},{"type":"Feature","properties":{"Address":"1455 East Katie Avenue","Property Name":"Valencia","City":"Las Vegas","State":"NV","Zipcode":89119,"Source":2022,"Property Number":153},"geometry":{"type":"Point","coordinates":[-115.133523,36.120201]}},{"type":"Feature","properties":{"Address":"229 16th Street","Property Name":"Ballpark Apartments","City":"San Diego","State":"CA","Zipcode":92101,"Source":2023,"Property Number":154},"geometry":{"type":"Point","coordinates":[-117.148989,32.707851]}},{"type":"Feature","properties":{"Address":"12960 Dronfield Avenue","Property Name":"Dronfield","City":"Sylmar","State":"CA","Zipcode":91342,"Source":2023,"Property Number":155},"geometry":{"type":"Point","coordinates":[-118.4342491,34.3056543]}},{"type":"Feature","properties":{"Address":"227 Pane Road","Property Name":"The Pike","City":"Newington","State":"CT","Zipcode":6111,"Source":2023,"Property Number":156},"geometry":{"type":"Point","coordinates":[-72.734995,41.6548746]}},{"type":"Feature","properties":{"Address":"1236 Grand Concourse","Property Name":"","City":"New York","State":"NY","Zipcode":10456,"Source":"Prana Investments","Property Number":157},"geometry":{"type":"Point","coordinates":[-73.9166284,40.8350771]}},{"type":"Feature","properties":{"Address":"1380-88 Saint Nicholas Avenue","Property Name":"","City":"New York","State":"NY","Zipcode":10033,"Source":"Prana Investments","Property Number":158},"geometry":{"type":"Point","coordinates":[-73.9392873,40.8413945]}},{"type":"Feature","properties":{"Address":"1390-98 Saint Nicholas Avenue","Property Name":"","City":"New York","State":"NY","Zipcode":10033,"Source":"Prana Investments","Property Number":159},"geometry":{"type":"Point","coordinates":[-73.952591,40.810765]}},{"type":"Feature","properties":{"Address":"1401-7 Saint Nicholas Avenue","Property Name":"","City":"New York","State":"NY","Zipcode":10033,"Source":"Prana Investments","Property Number":160},"geometry":{"type":"Point","coordinates":[-73.9338953,40.8490963]}},{"type":"Feature","properties":{"Address":"210-220 Nagle Avenue","Property Name":"","City":"New York","State":"NY","Zipcode":10034,"Source":"Prana Investments","Property Number":161},"geometry":{"type":"Point","coordinates":[-73.925668,40.861259]}},{"type":"Feature","properties":{"Address":"3115 Sedgwick Avenue","Property Name":"","City":"New York","State":"NY","Zipcode":10463,"Source":"Prana Investments","Property Number":162},"geometry":{"type":"Point","coordinates":[-73.8993531,40.877145]}},{"type":"Feature","properties":{"Address":"2372-2376 Amsterdam Avenue","Property Name":"","City":"New York","State":"NY","Zipcode":10033,"Source":"Prana Investments","Property Number":163},"geometry":{"type":"Point","coordinates":[-73.932324,40.846154]}},{"type":"Feature","properties":{"Address":"2541 Aqueduct Avenue","Property Name":"","City":"New York","State":"NY","Zipcode":10468,"Source":"Prana Investments","Property Number":164},"geometry":{"type":"Point","coordinates":[-73.9019906,40.865956]}},{"type":"Feature","properties":{"Address":"2710-2714 Broadway","Property Name":"","City":"New York","State":"NY","Zipcode":10025,"Source":"Prana Investments","Property Number":165},"geometry":{"type":"Point","coordinates":[-73.9712831,40.7952015]}},{"type":"Feature","properties":{"Address":"30 Sickles Street","Property Name":"","City":"New York","State":"NY","Zipcode":10040,"Source":"Prana Investments","Property Number":166},"geometry":{"type":"Point","coordinates":[-73.9284281,40.8616682]}},{"type":"Feature","properties":{"Address":"3021 Holland Avenue","Property Name":"","City":"New York","State":"NY","Zipcode":10467,"Source":"Prana Investments","Property Number":167},"geometry":{"type":"Point","coordinates":[-73.865527,40.8701983]}},{"type":"Feature","properties":{"Address":"955 Yonkers Avenue","Property Name":"","City":"New York","State":"NY","Zipcode":10704,"Source":"Prana Investments","Property Number":168},"geometry":{"type":"Point","coordinates":[-73.8592266,40.9173461]}},{"type":"Feature","properties":{"Address":"1225 Sherman Avenue","Property Name":"","City":"New York","State":"NY","Zipcode":10456,"Source":"Prana Investments","Property Number":169},"geometry":{"type":"Point","coordinates":[-73.9157411,40.8344491]}},{"type":"Feature","properties":{"Address":"1057 South Western Avenue","Property Name":"","City":"Los Angeles","State":"CA","Zipcode":90006,"Source":"Prana Investments","Property Number":170},"geometry":{"type":"Point","coordinates":[-118.3091469,34.0512286]}},{"type":"Feature","properties":{"Address":"1319 Ingraham Street","Property Name":"","City":"Los Angeles","State":"CA","Zipcode":90017,"Source":"Prana Investments","Property Number":171},"geometry":{"type":"Point","coordinates":[-118.2673515,34.0532474]}},{"type":"Feature","properties":{"Address":"132 South Westmoreland Avenue","Property Name":"","City":"Los Angeles","State":"CA","Zipcode":90004,"Source":"Prana Investments","Property Number":172},"geometry":{"type":"Point","coordinates":[-118.2878254,34.0728266]}},{"type":"Feature","properties":{"Address":"1416 West 10th Place","Property Name":"","City":"Los Angeles","State":"CA","Zipcode":90015,"Source":"Prana Investments","Property Number":173},"geometry":{"type":"Point","coordinates":[-118.2717324,34.0474724]}},{"type":"Feature","properties":{"Address":"1422-1426 West 10th Place","Property Name":"","City":"Los Angeles","State":"CA","Zipcode":90015,"Source":"Prana Investments","Property Number":174},"geometry":{"type":"Point","coordinates":[-118.272659,34.0480089]}},{"type":"Feature","properties":{"Address":"147 North New Hampshire Avenue","Property Name":"","City":"Los Angeles","State":"CA","Zipcode":90004,"Source":"Prana Investments","Property Number":175},"geometry":{"type":"Point","coordinates":[-118.2930473,34.0735621]}},{"type":"Feature","properties":{"Address":"1513 West 12th Street","Property Name":"","City":"Los Angeles","State":"CA","Zipcode":90015,"Source":"Prana Investments","Property Number":176},"geometry":{"type":"Point","coordinates":[-118.2745147,34.0456206]}},{"type":"Feature","properties":{"Address":"220 South Catalina Street","Property Name":"","City":"Los Angeles","State":"CA","Zipcode":90004,"Source":"Prana Investments","Property Number":177},"geometry":{"type":"Point","coordinates":[-118.2953191,34.0705134]}},{"type":"Feature","properties":{"Address":"2795 West 8th Street","Property Name":"","City":"Los Angeles","State":"CA","Zipcode":90005,"Source":"Prana Investments","Property Number":178},"geometry":{"type":"Point","coordinates":[-118.2866237,34.0578125]}},{"type":"Feature","properties":{"Address":"516 North Harvard Boulevard","Property Name":"","City":"Los Angeles","State":"CA","Zipcode":90004,"Source":"Prana Investments","Property Number":179},"geometry":{"type":"Point","coordinates":[-118.304491,34.0802779]}},{"type":"Feature","properties":{"Address":"750-752 South Mariposa Avenue","Property Name":"","City":"Los Angeles","State":"CA","Zipcode":90005,"Source":"Prana Investments","Property Number":180},"geometry":{"type":"Point","coordinates":[-118.2987164,34.0597389]}},{"type":"Feature","properties":{"Address":"975 South Oxford Avenue","Property Name":"","City":"Los Angeles","State":"CA","Zipcode":90006,"Source":"Prana Investments","Property Number":181},"geometry":{"type":"Point","coordinates":[-118.3075196,34.053294]}},{"type":"Feature","properties":{"Address":"979 South Oxford Avenue","Property Name":"","City":"Los Angeles","State":"CA","Zipcode":90006,"Source":"Prana Investments","Property Number":182},"geometry":{"type":"Point","coordinates":[-118.3075193,34.053206]}},{"type":"Feature","properties":{"Address":"985 South Oxford Avenue","Property Name":"","City":"Los Angeles","State":"CA","Zipcode":90006,"Source":"Prana Investments","Property Number":183},"geometry":{"type":"Point","coordinates":[-118.3075189,34.053074]}},{"type":"Feature","properties":{"Address":"147 South Normandie Avenue","Property Name":"","City":"Los Angeles","State":"CA","Zipcode":90004,"Source":"Prana Investments","Property Number":184},"geometry":{"type":"Point","coordinates":[-118.3004782,34.0720179]}},{"type":"Feature","properties":{"Address":"916 South Lake Street","Property Name":"","City":"Los Angeles","State":"CA","Zipcode":90006,"Source":"Prana Investments","Property Number":185},"geometry":{"type":"Point","coordinates":[-118.2800141,34.0535009]}},{"type":"Feature","properties":{"Address":"1645 West Ogden Avenue Unit 620","Property Name":"","City":"Chicago","State":"IL","Zipcode":60612,"Source":"Cano Portfolio","Property Number":186},"geometry":{"type":"Point","coordinates":[-87.6683042,41.8795145]}},{"type":"Feature","properties":{"Address":"4663 South Paxton Avenue Unit 2","Property Name":"","City":"Chicago","State":"IL","Zipcode":60653,"Source":"Cano Portfolio","Property Number":187},"geometry":{"type":"Point","coordinates":[-87.5715108,41.7698562]}},{"type":"Feature","properties":{"Address":"6528 University Avenue Unit 1N","Property Name":"","City":"Chicago","State":"IL","Zipcode":60637,"Source":"Cano Portfolio","Property Number":188},"geometry":{"type":"Point","coordinates":[-87.598613,41.776334]}},{"type":"Feature","properties":{"Address":"6630 Kenwood Road Unit 1N","Property Name":"","City":"Chicago","State":"IL","Zipcode":60637,"Source":"Cano Portfolio","Property Number":189},"geometry":{"type":"Point","coordinates":[-87.593013,41.774523]}},{"type":"Feature","properties":{"Address":"6612 Kenwood Road Unit GN","Property Name":"","City":"Chicago","State":"IL","Zipcode":60637,"Source":"Cano Portfolio","Property Number":190},"geometry":{"type":"Point","coordinates":[-87.593021,41.774855]}},{"type":"Feature","properties":{"Address":"7800 South Coles Avenue Unit 1","Property Name":"","City":"Chicago","State":"IL","Zipcode":60649,"Source":"Cano Portfolio","Property Number":191},"geometry":{"type":"Point","coordinates":[-87.5529456,41.7541976]}},{"type":"Feature","properties":{"Address":"7402 South Coles Avenue Unit 1","Property Name":"","City":"Chicago","State":"IL","Zipcode":60649,"Source":"Cano Portfolio","Property Number":192},"geometry":{"type":"Point","coordinates":[-87.5602341,41.7614274]}},{"type":"Feature","properties":{"Address":"1661 69th Street Unit 3","Property Name":"","City":"Chicago","State":"IL","Zipcode":60637,"Source":"Cano Portfolio","Property Number":193},"geometry":{"type":"Point","coordinates":[-87.5837215,41.769642]}},{"type":"Feature","properties":{"Address":"1464 69th Street Apt 2N","Property Name":"","City":"Chicago","State":"IL","Zipcode":60637,"Source":"Cano Portfolio","Property Number":194},"geometry":{"type":"Point","coordinates":[-87.5888699,41.7697506]}},{"type":"Feature","properties":{"Address":"7026 Essex Avenue","Property Name":"","City":"Chicago","State":"IL","Zipcode":60649,"Source":"Cano Portfolio","Property Number":195},"geometry":{"type":"Point","coordinates":[-87.5638829,41.7553989]}},{"type":"Feature","properties":{"Address":"7628 Wabash Avenue Unit SW","Property Name":"","City":"Chicago","State":"IL","Zipcode":60619,"Source":"Cano Portfolio","Property Number":196},"geometry":{"type":"Point","coordinates":[-87.6234525,41.7555694]}},{"type":"Feature","properties":{"Address":"5000 Indiana Unit 3","Property Name":"","City":"Chicago","State":"IL","Zipcode":60615,"Source":"Cano Portfolio","Property Number":197},"geometry":{"type":"Point","coordinates":[-87.6215579,41.803488]}},{"type":"Feature","properties":{"Address":"1301 West Diversey Unit 3E","Property Name":"","City":"Chicago","State":"IL","Zipcode":60614,"Source":"Cano Portfolio","Property Number":198},"geometry":{"type":"Point","coordinates":[-87.6613311,41.9323398]}},{"type":"Feature","properties":{"Address":"400 Elizabeth Street","Property Name":"","City":"Joliet","State":"IL","Zipcode":60436,"Source":"Cano Portfolio","Property Number":199},"geometry":{"type":"Point","coordinates":[-88.089304,41.5399066]}},{"type":"Feature","properties":{"Address":"6033 South University Avenue Unit 102","Property Name":"","City":"Chicago","State":"IL","Zipcode":60637,"Source":"Cano Portfolio","Property Number":200},"geometry":{"type":"Point","coordinates":[-87.5978237,41.7853757]}},{"type":"Feature","properties":{"Address":"6555 University Avenue Unit 102","Property Name":"","City":"Chicago","State":"IL","Zipcode":60637,"Source":"Cano Portfolio","Property Number":201},"geometry":{"type":"Point","coordinates":[-87.598456,41.775854]}},{"type":"Feature","properties":{"Address":"7723 South Cornell Avenue","Property Name":"","City":"Chicago","State":"IL","Zipcode":60649,"Source":"Cano Portfolio","Property Number":202},"geometry":{"type":"Point","coordinates":[-87.5842138,41.7544222]}},{"type":"Feature","properties":{"Address":"6111 Rhodes Avenue","Property Name":"","City":"Chicago","State":"IL","Zipcode":60637,"Source":"Cano Portfolio","Property Number":203},"geometry":{"type":"Point","coordinates":[-87.6119847,41.7836609]}},{"type":"Feature","properties":{"Address":"7819 Shore Drive","Property Name":"","City":"Chicago","State":"IL","Zipcode":60649,"Source":"Cano Portfolio","Property Number":204},"geometry":{"type":"Point","coordinates":[-87.582242,41.798166]}},{"type":"Feature","properties":{"Address":"6341 South Lawrence Avenue","Property Name":"","City":"Chicago","State":"IL","Zipcode":60630,"Source":"Cano Portfolio","Property Number":205},"geometry":{"type":"Point","coordinates":[-87.6104823,41.7791065]}},{"type":"Feature","properties":{"Address":"8240 Exchange Avenue","Property Name":"","City":"Chicago","State":"IL","Zipcode":60617,"Source":"Cano Portfolio","Property Number":206},"geometry":{"type":"Point","coordinates":[-87.553042,41.7452395]}},{"type":"Feature","properties":{"Address":"7233 Story Island Avenue","Property Name":"","City":"Chicago","State":"IL","Zipcode":60649,"Source":"Cano Portfolio","Property Number":207},"geometry":{"type":"Point","coordinates":[-87.624506,41.902437]}},{"type":"Feature","properties":{"Address":"8227 Kingston Avenue","Property Name":"","City":"Chicago","State":"IL","Zipcode":60617,"Source":"Cano Portfolio","Property Number":208},"geometry":{"type":"Point","coordinates":[-87.5622525,41.7455348]}},{"type":"Feature","properties":{"Address":"8128 Ellis Avenue","Property Name":"","City":"Chicago","State":"IL","Zipcode":60619,"Source":"Cano Portfolio","Property Number":209},"geometry":{"type":"Point","coordinates":[-87.6004996,41.7467567]}},{"type":"Feature","properties":{"Address":"8128 Columbia Avenue","Property Name":"","City":"Chicago","State":"IL","Zipcode":60649,"Source":"Cano Portfolio","Property Number":210},"geometry":{"type":"Point","coordinates":[-87.8237955,42.0031141]}},{"type":"Feature","properties":{"Address":"6347 Bradley Place","Property Name":"","City":"Chicago","State":"IL","Zipcode":60634,"Source":"Cano Portfolio","Property Number":211},"geometry":{"type":"Point","coordinates":[-87.6930142,41.949467]}},{"type":"Feature","properties":{"Address":"6347 Rhodes Avenue","Property Name":"","City":"Chicago","State":"IL","Zipcode":60637,"Source":"Cano Portfolio","Property Number":212},"geometry":{"type":"Point","coordinates":[-87.6117463,41.7788184]}},{"type":"Feature","properties":{"Address":"6243 Rhodes Avenue","Property Name":"","City":"Chicago","State":"IL","Zipcode":60637,"Source":"Cano Portfolio","Property Number":213},"geometry":{"type":"Point","coordinates":[-87.6117734,41.7808081]}},{"type":"Feature","properties":{"Address":"6143 St Lawrence Avenue","Property Name":"","City":"Chicago","State":"IL","Zipcode":60637,"Source":"Cano Portfolio","Property Number":214},"geometry":{"type":"Point","coordinates":[-87.6105676,41.7827255]}},{"type":"Feature","properties":{"Address":"8359 Maryland Avenue","Property Name":"","City":"Chicago","State":"IL","Zipcode":60619,"Source":"Cano Portfolio","Property Number":215},"geometry":{"type":"Point","coordinates":[-87.6036773,41.7429116]}},{"type":"Feature","properties":{"Address":"4159 Indiana Avenue","Property Name":"","City":"Chicago","State":"IL","Zipcode":60653,"Source":"Cano Portfolio","Property Number":216},"geometry":{"type":"Point","coordinates":[-87.621368,41.8191265]}},{"type":"Feature","properties":{"Address":"4285 Oakwood Building","Property Name":"","City":"Chicago","State":"IL","Zipcode":60653,"Source":"Cano Portfolio","Property Number":217},"geometry":{"type":"Point","coordinates":[-87.6126,41.8196]}},{"type":"Feature","properties":{"Address":"7201-7235 Yates Street","Property Name":"","City":"Chicago","State":"IL","Zipcode":60649,"Source":"Cano Portfolio","Property Number":218},"geometry":{"type":"Point","coordinates":[-87.5664,41.763805]}},{"type":"Feature","properties":{"Address":"8339 St Lawrence Avenue","Property Name":"","City":"Chicago","State":"IL","Zipcode":60619,"Source":"Cano Portfolio","Property Number":219},"geometry":{"type":"Point","coordinates":[-87.6097333,41.7428028]}},{"type":"Feature","properties":{"Address":"6125-35 Michigan Avenue","Property Name":"","City":"Chicago","State":"IL","Zipcode":60637,"Source":"Cano Portfolio","Property Number":220},"geometry":{"type":"Point","coordinates":[-87.622466,41.794693]}},{"type":"Feature","properties":{"Address":"9138 Baltimore Avenue","Property Name":"","City":"Chicago","State":"IL","Zipcode":60617,"Source":"Cano Portfolio","Property Number":221},"geometry":{"type":"Point","coordinates":[-87.5485946,41.7295644]}},{"type":"Feature","properties":{"Address":"7841 Phillips Avenue","Property Name":"","City":"Chicago","State":"IL","Zipcode":60649,"Source":"Cano Portfolio","Property Number":222},"geometry":{"type":"Point","coordinates":[-87.5646955,41.7523908]}},{"type":"Feature","properties":{"Address":"9155 Phillips Avenue","Property Name":"","City":"Chicago","State":"IL","Zipcode":60617,"Source":"Cano Portfolio","Property Number":223},"geometry":{"type":"Point","coordinates":[-87.5644641,41.7289144]}},{"type":"Feature","properties":{"Address":"4556 St Prairie Avenue","Property Name":"","City":"Chicago","State":"IL","Zipcode":60653,"Source":"Cano Portfolio","Property Number":224},"geometry":{"type":"Point","coordinates":[-87.619743,41.811926]}},{"type":"Feature","properties":{"Address":"4556 Michigan Avenue","Property Name":"","City":"Chicago","State":"IL","Zipcode":60653,"Source":"Cano Portfolio","Property Number":225},"geometry":{"type":"Point","coordinates":[-87.6232976,41.8114215]}},{"type":"Feature","properties":{"Address":"4454 Ellis Avenue","Property Name":"","City":"Chicago","State":"IL","Zipcode":60653,"Source":"Cano Portfolio","Property Number":226},"geometry":{"type":"Point","coordinates":[-87.6019028,41.8140567]}},{"type":"Feature","properties":{"Address":"4556 Michigan Avenue","Property Name":"","City":"Chicago","State":"IL","Zipcode":60653,"Source":"Cano Portfolio","Property Number":227},"geometry":{"type":"Point","coordinates":[-87.6232976,41.8114215]}},{"type":"Feature","properties":{"Address":"4201 Michigan Avenue","Property Name":"","City":"Chicago","State":"IL","Zipcode":60653,"Source":"Cano Portfolio","Property Number":228},"geometry":{"type":"Point","coordinates":[-87.6227689,41.8182226]}},{"type":"Feature","properties":{"Address":"4280 Michigan Avenue","Property Name":"","City":"Chicago","State":"IL","Zipcode":60653,"Source":"Cano Portfolio","Property Number":229},"geometry":{"type":"Point","coordinates":[-87.6231502,41.8169472]}},{"type":"Feature","properties":{"Address":"4100 Michigan Avenue","Property Name":"","City":"Chicago","State":"IL","Zipcode":60653,"Source":"Cano Portfolio","Property Number":230},"geometry":{"type":"Point","coordinates":[-87.623232,41.820023]}},{"type":"Feature","properties":{"Address":"4103 Ellis Avenue","Property Name":"","City":"Chicago","State":"IL","Zipcode":60653,"Source":"Cano Portfolio","Property Number":231},"geometry":{"type":"Point","coordinates":[-87.6025733,41.8197403]}},{"type":"Feature","properties":{"Address":"7183 East End Avenue","Property Name":"","City":"Chicago","State":"IL","Zipcode":60649,"Source":"Cano Portfolio","Property Number":232},"geometry":{"type":"Point","coordinates":[-87.5835258,41.7646266]}},{"type":"Feature","properties":{"Address":"6854 Cornell Avenue","Property Name":"","City":"Chicago","State":"IL","Zipcode":60649,"Source":"Cano Portfolio","Property Number":233},"geometry":{"type":"Point","coordinates":[-87.5851179,41.7705824]}},{"type":"Feature","properties":{"Address":"1344 Diversey Parkway","Property Name":"","City":"Chicago","State":"IL","Zipcode":60614,"Source":"Cano Portfolio","Property Number":234},"geometry":{"type":"Point","coordinates":[-87.6628924,41.9326877]}},{"type":"Feature","properties":{"Address":"8103 Eberhart Avenue","Property Name":"","City":"Chicago","State":"IL","Zipcode":60619,"Source":"Cano Portfolio","Property Number":235},"geometry":{"type":"Point","coordinates":[-87.6122851,41.7473498]}},{"type":"Feature","properties":{"Address":"8042 Vernon Avenue","Property Name":"","City":"Chicago","State":"IL","Zipcode":60619,"Source":"Cano Portfolio","Property Number":236},"geometry":{"type":"Point","coordinates":[-87.6137521,41.7485096]}},{"type":"Feature","properties":{"Address":"8042 South Rhodes Avenue","Property Name":"","City":"Chicago","State":"IL","Zipcode":60619,"Source":"Cano Portfolio","Property Number":237},"geometry":{"type":"Point","coordinates":[-87.6115184,41.7480517]}},{"type":"Feature","properties":{"Address":"8125 Maryland Avenue","Property Name":"","City":"Chicago","State":"IL","Zipcode":60619,"Source":"Cano Portfolio","Property Number":238},"geometry":{"type":"Point","coordinates":[-87.6035197,41.7468695]}},{"type":"Feature","properties":{"Address":"7527 Colfax Avenue","Property Name":"","City":"Chicago","State":"IL","Zipcode":60649,"Source":"Cano Portfolio","Property Number":239},"geometry":{"type":"Point","coordinates":[-87.5611406,41.7582263]}},{"type":"Feature","properties":{"Address":"8201 Kimbark Avenue","Property Name":"","City":"Chicago","State":"IL","Zipcode":60619,"Source":"Cano Portfolio","Property Number":240},"geometry":{"type":"Point","coordinates":[-87.5926256,41.7457898]}},{"type":"Feature","properties":{"Address":"6056 Eberhart Avenue","Property Name":"","City":"Chicago","State":"IL","Zipcode":60637,"Source":"Cano Portfolio","Property Number":241},"geometry":{"type":"Point","coordinates":[-87.6133582,41.7846046]}},{"type":"Feature","properties":{"Address":"6669 Ellis Avenue","Property Name":"","City":"Chicago","State":"IL","Zipcode":60637,"Source":"Cano Portfolio","Property Number":242},"geometry":{"type":"Point","coordinates":[-87.6008041,41.7737958]}},{"type":"Feature","properties":{"Address":"1644 64th Street","Property Name":"","City":"Chicago","State":"IL","Zipcode":60637,"Source":"Cano Portfolio","Property Number":243},"geometry":{"type":"Point","coordinates":[-87.6657251,41.7777143]}},{"type":"Feature","properties":{"Address":"9517 Oglesby Avenue","Property Name":"","City":"Chicago","State":"IL","Zipcode":60617,"Source":"Cano Portfolio","Property Number":244},"geometry":{"type":"Point","coordinates":[-87.5657851,41.7223015]}},{"type":"Feature","properties":{"Address":"5646 Calumet Avenue","Property Name":"","City":"Chicago","State":"IL","Zipcode":60637,"Source":"Cano Portfolio","Property Number":245},"geometry":{"type":"Point","coordinates":[-87.6176386,41.7921079]}},{"type":"Feature","properties":{"Address":"1514 67th Street","Property Name":"","City":"Chicago","State":"IL","Zipcode":60637,"Source":"Cano Portfolio","Property Number":246},"geometry":{"type":"Point","coordinates":[-87.5883893,41.7733943]}},{"type":"Feature","properties":{"Address":"5034 Champlain Avenue","Property Name":"","City":"Chicago","State":"IL","Zipcode":60615,"Source":"Cano Portfolio","Property Number":247},"geometry":{"type":"Point","coordinates":[-87.6102325,41.8028793]}},{"type":"Feature","properties":{"Address":"6143 Ellis Avenue","Property Name":"","City":"Chicago","State":"IL","Zipcode":60637,"Source":"Cano Portfolio","Property Number":248},"geometry":{"type":"Point","coordinates":[-87.6010195,41.783308]}},{"type":"Feature","properties":{"Address":"4531 Woodlawn Avenue","Property Name":"","City":"Chicago","State":"IL","Zipcode":60653,"Source":"Cano Portfolio","Property Number":249},"geometry":{"type":"Point","coordinates":[-87.596785,41.8126795]}},{"type":"Feature","properties":{"Address":"5142 Prairie Avenue","Property Name":"","City":"Chicago","State":"IL","Zipcode":60615,"Source":"Cano Portfolio","Property Number":250},"geometry":{"type":"Point","coordinates":[-87.6512947,41.5069583]}},{"type":"Feature","properties":{"Address":"8757 Clyde Avenue","Property Name":"","City":"Chicago","State":"IL","Zipcode":60617,"Source":"Cano Portfolio","Property Number":251},"geometry":{"type":"Point","coordinates":[-87.5729207,41.7354112]}},{"type":"Feature","properties":{"Address":"1345 West Roscoe Street","Property Name":"","City":"Chicago","State":"IL","Zipcode":60657,"Source":"Cano Portfolio","Property Number":252},"geometry":{"type":"Point","coordinates":[-87.663123,41.943348]}},{"type":"Feature","properties":{"Address":"9001 Merrill Avenue","Property Name":"","City":"Chicago","State":"IL","Zipcode":60617,"Source":"Cano Portfolio","Property Number":253},"geometry":{"type":"Point","coordinates":[-87.5720435,41.7314922]}},{"type":"Feature","properties":{"Address":"7843 Oglesby Avenue","Property Name":"","City":"Chicago","State":"IL","Zipcode":60649,"Source":"Cano Portfolio","Property Number":254},"geometry":{"type":"Point","coordinates":[-87.5673595,41.7529699]}},{"type":"Feature","properties":{"Address":"8135 Kingston Avenue","Property Name":"","City":"Chicago","State":"IL","Zipcode":60617,"Source":"Cano Portfolio","Property Number":255},"geometry":{"type":"Point","coordinates":[-87.5622042,41.7470476]}},{"type":"Feature","properties":{"Address":"6243 South Rhodes Avenue","Property Name":"","City":"Chicago","State":"IL","Zipcode":60637,"Source":"Cano 2 Portfolio","Property Number":256},"geometry":{"type":"Point","coordinates":[-87.6117734,41.7808081]}},{"type":"Feature","properties":{"Address":"9752 South Avenue J","Property Name":"","City":"Chicago","State":"IL","Zipcode":60617,"Source":"Cano 2 Portfolio","Property Number":257},"geometry":{"type":"Point","coordinates":[-87.5343336,41.7180252]}},{"type":"Feature","properties":{"Address":"1344 West Devon Avenue","Property Name":"","City":"Chicago","State":"IL","Zipcode":60660,"Source":"Cano 2 Portfolio","Property Number":258},"geometry":{"type":"Point","coordinates":[-87.6646272,41.9982273]}},{"type":"Feature","properties":{"Address":"2620 East 74th Street","Property Name":"","City":"Chicago","State":"IL","Zipcode":60649,"Source":"Cano 2 Portfolio","Property Number":259},"geometry":{"type":"Point","coordinates":[-87.5610696,41.7613215]}},{"type":"Feature","properties":{"Address":"5201 South Calumet Avenue","Property Name":"","City":"Chicago","State":"IL","Zipcode":60615,"Source":"Cano 2 Portfolio","Property Number":260},"geometry":{"type":"Point","coordinates":[-87.6173942,41.8002063]}},{"type":"Feature","properties":{"Address":"5711 South Calumet Avenue","Property Name":"","City":"Chicago","State":"IL","Zipcode":60637,"Source":"Cano 2 Portfolio","Property Number":261},"geometry":{"type":"Point","coordinates":[-87.6171696,41.7907635]}},{"type":"Feature","properties":{"Address":"6628 Loomis Boulevard","Property Name":"","City":"Chicago","State":"IL","Zipcode":60636,"Source":"Cano 2 Portfolio","Property Number":262},"geometry":{"type":"Point","coordinates":[-87.6594305,41.7731863]}},{"type":"Feature","properties":{"Address":"7201 South Yates Boulevard","Property Name":"","City":"Chicago","State":"IL","Zipcode":60649,"Source":"Cano 2 Portfolio","Property Number":263},"geometry":{"type":"Point","coordinates":[-87.5660338,41.7640887]}},{"type":"Feature","properties":{"Address":"7233 South Stony Island Avenue","Property Name":"","City":"Chicago","State":"IL","Zipcode":60649,"Source":"Cano 2 Portfolio","Property Number":264},"geometry":{"type":"Point","coordinates":[-87.5855016,41.7632301]}},{"type":"Feature","properties":{"Address":"8128 Escanaba Avenue","Property Name":"","City":"Chicago","State":"IL","Zipcode":60617,"Source":"Cano 2 Portfolio","Property Number":265},"geometry":{"type":"Point","coordinates":[-87.554285,41.7473768]}},{"type":"Feature","properties":{"Address":"8327 South Kingston Avenue","Property Name":"","City":"Chicago","State":"IL","Zipcode":60617,"Source":"Cano 2 Portfolio","Property Number":266},"geometry":{"type":"Point","coordinates":[-87.5622019,41.7436431]}},{"type":"Feature","properties":{"Address":"8935 South Marshfield Avenue","Property Name":"","City":"Chicago","State":"IL","Zipcode":60620,"Source":"Cano 2 Portfolio","Property Number":267},"geometry":{"type":"Point","coordinates":[-87.66387,41.7310891]}},{"type":"Feature","properties":{"Address":"2453 West Marquette Road","Property Name":"","City":"Chicago","State":"IL","Zipcode":60629,"Source":"Cano 2 Portfolio","Property Number":268},"geometry":{"type":"Point","coordinates":[-87.685114,41.7718689]}},{"type":"Feature","properties":{"Address":"102 Memorial Drive","Property Name":"","City":"Calumet City","State":"IL","Zipcode":60409,"Source":"Cano 2 Portfolio","Property Number":269},"geometry":{"type":"Point","coordinates":[-87.5277175,41.6192384]}},{"type":"Feature","properties":{"Address":"1347 West Washington Boulevard","Property Name":"","City":"Chicago","State":"IL","Zipcode":60607,"Source":"Cano 2 Portfolio","Property Number":270},"geometry":{"type":"Point","coordinates":[-87.6616782,41.8826022]}},{"type":"Feature","properties":{"Address":"1411 West Grand Avenue","Property Name":"","City":"Chicago","State":"IL","Zipcode":60642,"Source":"Cano 2 Portfolio","Property Number":271},"geometry":{"type":"Point","coordinates":[-87.6627911,41.8908316]}},{"type":"Feature","properties":{"Address":"2117 West Grand Avenue","Property Name":"","City":"Chicago","State":"IL","Zipcode":60612,"Source":"Cano 2 Portfolio","Property Number":272},"geometry":{"type":"Point","coordinates":[-87.6800634,41.8905866]}},{"type":"Feature","properties":{"Address":"3250 West Crystal Avenue","Property Name":"","City":"Chicago","State":"IL","Zipcode":60651,"Source":"Cano 2 Portfolio","Property Number":273},"geometry":{"type":"Point","coordinates":[-87.708083,41.903816]}},{"type":"Feature","properties":{"Address":"5637 Wabash Avenue","Property Name":"","City":"Chicago","State":"IL","Zipcode":60637,"Source":"Cano 2 Portfolio","Property Number":274},"geometry":{"type":"Point","coordinates":[-87.6236452,41.7917865]}},{"type":"Feature","properties":{"Address":"4230 Langley Avenue","Property Name":"","City":"Chicago","State":"IL","Zipcode":60653,"Source":"Cano 2 Portfolio","Property Number":275},"geometry":{"type":"Point","coordinates":[-87.6094857,41.81765]}},{"type":"Feature","properties":{"Address":"4234 Champlain Avenue","Property Name":"","City":"Chicago","State":"IL","Zipcode":60653,"Source":"Cano 2 Portfolio","Property Number":276},"geometry":{"type":"Point","coordinates":[-87.6107222,41.8175002]}},{"type":"Feature","properties":{"Address":"4710 Ellis Avenue","Property Name":"","City":"Chicago","State":"IL","Zipcode":60615,"Source":"Cano 2 Portfolio","Property Number":277},"geometry":{"type":"Point","coordinates":[-87.602004,41.8091251]}},{"type":"Feature","properties":{"Address":"5020 Prairie Avenue","Property Name":"","City":"Chicago","State":"IL","Zipcode":60615,"Source":"Cano 2 Portfolio","Property Number":278},"geometry":{"type":"Point","coordinates":[-87.6512947,41.5069583]}},{"type":"Feature","properties":{"Address":"6225 Kenwood Avenue","Property Name":"","City":"Chicago","State":"IL","Zipcode":60637,"Source":"Cano 2 Portfolio","Property Number":279},"geometry":{"type":"Point","coordinates":[-87.5927342,41.7815629]}},{"type":"Feature","properties":{"Address":"7949 Bennett Avenue","Property Name":"","City":"Chicago","State":"IL","Zipcode":60617,"Source":"Cano 2 Portfolio","Property Number":280},"geometry":{"type":"Point","coordinates":[-87.5781118,41.7501307]}},{"type":"Feature","properties":{"Address":"7819 South Shore Drive","Property Name":"","City":"Chicago","State":"IL","Zipcode":60649,"Source":"Cano 2 Portfolio","Property Number":281},"geometry":{"type":"Point","coordinates":[-87.5503541,41.7546623]}},{"type":"Feature","properties":{"Address":"6853 Paxton Avenue","Property Name":"","City":"Chicago","State":"IL","Zipcode":60649,"Source":"Cano 2 Portfolio","Property Number":282},"geometry":{"type":"Point","coordinates":[-87.5714227,41.7707197]}},{"type":"Feature","properties":{"Address":"6551 University Avenue","Property Name":"","City":"Chicago","State":"IL","Zipcode":60637,"Source":"Cano 2 Portfolio","Property Number":283},"geometry":{"type":"Point","coordinates":[-87.598457,41.775929]}},{"type":"Feature","properties":{"Address":"6553 University Avenue","Property Name":"","City":"Chicago","State":"IL","Zipcode":60637,"Source":"Cano 2 Portfolio","Property Number":284},"geometry":{"type":"Point","coordinates":[-87.598456,41.775892]}},{"type":"Feature","properties":{"Address":"3269 Wabansia Avenue","Property Name":"","City":"Chicago","State":"IL","Zipcode":60647,"Source":"Cano 2 Portfolio","Property Number":285},"geometry":{"type":"Point","coordinates":[-87.7095553,41.911824]}},{"type":"Feature","properties":{"Address":"900 East Grand Avenue","Property Name":"","City":"Chicago","State":"IL","Zipcode":60611,"Source":"Cano 2 Portfolio","Property Number":286},"geometry":{"type":"Point","coordinates":[-87.6028356,41.891328]}}]}